IRIDIUM 171             
1 43929U 19002H   26018.85670036  .00000168  00000+0  53027-4 0  9996
2 43929  86.3939  56.2820 0002264  87.8484 272.2971 14.34218744367557
IRIDIUM 170             
1 43930U 19002J   26018.84011339  .00000117  00000+0  14698-4 0  9997
2 43930  86.6055  55.9921 0002297  88.6845 271.4635 14.72254430377288
IRIDIUM 167             
1 43931U 19002K   26018.78058983  .00000083  00000+0  22556-4 0  9991
2 43931  86.3929  56.0450 0002434  84.4825 275.6649 14.34218179367547
IRIDIUM 181             
1 56726U 23068S   26018.77094599  .00000363  00000+0  10192-3 0  9999
2 56726  86.4527 119.2645 0001765  95.6713 264.4689 14.43312127140886
IRIDIUM 177             
1 56727U 23068T   26018.58502154  .00001070  00000+0  13737-3 0  9994
2 56727  86.1937  39.8227 0002319  89.7557 270.3930 14.80235273144233
IRIDIUM 174             
1 56728U 23068U   26018.96369553  .00000790  00000+0  12135-3 0  9990
2 56728  86.6059  56.0727 0002296  92.8557 267.2923 14.72253527144060
IRIDIUM 178             
1 56729U 23068V   26018.70937121  .00001054  00000+0  13519-3 0  9996
2 56729  86.6520  87.8519 0002265  84.2725 275.8755 14.80243584144253
IRIDIUM 179             
1 56730U 23068W   26018.70397237  .00001113  00000+0  14306-3 0  9997
2 56730  86.6771  96.3920 0002415  88.2949 271.8550 14.80230447144256
